TRANSPORTER-16 OBJECT AK
1 68449U 26067AK  26104.14347269  .00004380  00000+0  22363-3 0  9994
2 68449  97.4463  63.5490 0002380 320.9286  39.1776 15.17219477  2229
