{
  "norad_id": 68449,
  "name": "TRANSPORTER-16 OBJECT AK",
  "history": [
    {
      "epoch": "2026-04-14T03:26:36.040416Z",
      "apogee_km": 515.8890210067293,
      "perigee_km": 512.6082454453135,
      "latitude_deg": 7.643971598389215e-05,
      "longitude_deg": 169.57469508642214,
      "height_km": 516.0622765676638,
      "semi_major_axis_km": 6892.385633226021,
      "eccentricity": 0.000238,
      "inclination_deg": 97.4463,
      "raan_deg": 63.549,
      "arg_perigee_deg": 320.9286,
      "mean_anomaly_deg": 39.1776,
      "mean_motion_rev_day": 15.17219477
    }
  ]
}